     3.04           N: GNSS NAV DATA    M: MIXED            RINEX VERSION / TYPE
MergeMNfile.tcl     IGS                 20260928 033505 GMT PGM / RUN BY / DATE
BDSA   3.6322E-08 -3.7253E-08 -5.9605E-07  1.1921E-06 W 02  IONOSPHERIC CORR
BDSA   3.4459E-08  2.2352E-08 -8.3447E-07  1.4901E-06 M 05  IONOSPHERIC CORR
BDSA   3.6322E-08 -3.7253E-08 -5.9605E-07  1.1921E-06 W 06  IONOSPHERIC CORR
BDSA   3.8184E-08 -5.9605E-08 -5.3644E-07  1.1325E-06 K 07  IONOSPHERIC CORR
BDSA   3.6322E-08 -3.7253E-08 -5.9605E-07  1.2517E-06 S 08  IONOSPHERIC CORR
BDSA   3.6322E-08 -3.7253E-08 -5.9605E-07  1.1921E-06 W 09  IONOSPHERIC CORR
BDSA   3.8184E-08 -5.9605E-08 -5.3644E-07  1.1325E-06 L 10  IONOSPHERIC CORR
BDSA   3.6322E-08 -3.7253E-08 -5.9605E-07  1.1921E-06 W 11  IONOSPHERIC CORR
BDSA   3.6322E-08 -3.7253E-08 -5.9605E-07  1.2517E-06 S 12  IONOSPHERIC CORR
BDSA   3.6322E-08 -3.7253E-08 -5.9605E-07  1.1921E-06 W 13  IONOSPHERIC CORR
BDSA   3.7253E-08 -4.4703E-08 -5.9605E-07  1.1921E-06 M 14  IONOSPHERIC CORR
BDSA   2.7940E-08  1.0431E-07 -1.1325E-06  1.7881E-06 U 16  IONOSPHERIC CORR
BDSA   3.7253E-08 -4.4703E-08 -5.9605E-07  1.1921E-06 U 19  IONOSPHERIC CORR
BDSA   3.6322E-08 -3.7253E-08 -5.9605E-07  1.2517E-06 S 20  IONOSPHERIC CORR
BDSA   3.7253E-08 -4.4703E-08 -5.9605E-07  1.1921E-06 M 21  IONOSPHERIC CORR
BDSA   3.8184E-08 -6.7055E-08 -4.7684E-07  1.0729E-06 I 22  IONOSPHERIC CORR
BDSA   3.7253E-08 -4.4703E-08 -5.9605E-07  1.1921E-06 U 23  IONOSPHERIC CORR
BDSA   3.6322E-08 -3.7253E-08 -5.9605E-07  1.1921E-06 Q 24  IONOSPHERIC CORR
BDSA   3.6322E-08 -3.7253E-08 -5.9605E-07  1.2517E-06 S 25  IONOSPHERIC CORR
BDSA   3.6322E-08 -3.7253E-08 -5.9605E-07  1.2517E-06 O 26  IONOSPHERIC CORR
BDSA   3.6322E-08 -3.7253E-08 -5.9605E-07  1.1921E-06 W 27  IONOSPHERIC CORR
BDSA   3.6322E-08 -3.7253E-08 -5.9605E-07  1.1921E-06 W 28  IONOSPHERIC CORR
BDSA   3.6322E-08 -3.7253E-08 -5.9605E-07  1.1921E-06 X 29  IONOSPHERIC CORR
BDSA   3.6322E-08 -3.7253E-08 -5.9605E-07  1.1921E-06 W 30  IONOSPHERIC CORR
BDSA   3.6322E-08 -3.7253E-08 -5.9605E-07  1.1921E-06 Q 31  IONOSPHERIC CORR
BDSA   3.6322E-08 -3.7253E-08 -5.9605E-07  1.1921E-06 X 32  IONOSPHERIC CORR
BDSA   3.6322E-08 -3.7253E-08 -5.9605E-07  1.1921E-06 W 33  IONOSPHERIC CORR
BDSA   3.6322E-08 -3.7253E-08 -5.9605E-07  1.2517E-06 S 34  IONOSPHERIC CORR
BDSA   3.7253E-08 -5.9605E-08 -4.7684E-07  1.0729E-06 G 35  IONOSPHERIC CORR
BDSA   3.6322E-08 -3.7253E-08 -5.9605E-07  1.1921E-06 W 36  IONOSPHERIC CORR
BDSA   3.6322E-08 -3.7253E-08 -5.9605E-07  1.1921E-06 W 37  IONOSPHERIC CORR
BDSA   3.7253E-08 -4.4703E-08 -5.9605E-07  1.1921E-06 U 38  IONOSPHERIC CORR
BDSA   3.6322E-08 -3.7253E-08 -5.9605E-07  1.1921E-06 X 39  IONOSPHERIC CORR
BDSA   2.9802E-08  5.2154E-08 -8.9407E-07  1.4901E-06 E 40  IONOSPHERIC CORR
BDSA   3.6322E-08 -3.7253E-08 -5.9605E-07  1.1921E-06 W 41  IONOSPHERIC CORR
BDSA   3.6322E-08 -3.7253E-08 -5.9605E-07  1.2517E-06 O 42  IONOSPHERIC CORR
BDSA   3.3528E-08  4.4703E-08 -8.9407E-07  1.5497E-06 I 43  IONOSPHERIC CORR
BDSA   3.3528E-08  2.9802E-08 -8.3447E-07  1.4305E-06 E 44  IONOSPHERIC CORR
BDSA   2.4214E-08  1.8626E-07 -1.4305E-06  2.1458E-06 U 45  IONOSPHERIC CORR
BDSA   2.9802E-08  1.1176E-07 -1.1325E-06  1.7881E-06 Q 47  IONOSPHERIC CORR
BDSA   3.1665E-08  5.9605E-08 -9.5367E-07  1.6093E-06 W 48  IONOSPHERIC CORR
BDSA   2.8871E-08  1.1921E-07 -1.1325E-06  1.7881E-06 I 49  IONOSPHERIC CORR
BDSA   2.4214E-08  1.8626E-07 -1.4305E-06  2.1458E-06 W 50  IONOSPHERIC CORR
BDSB   1.4336E+05 -4.2598E+05  2.6870E+06 -2.2282E+06 W 02  IONOSPHERIC CORR
BDSB   1.5770E+05 -8.0282E+05  5.0463E+06 -3.9322E+06 M 05  IONOSPHERIC CORR
BDSB   1.4336E+05 -4.2598E+05  2.6870E+06 -2.2282E+06 W 06  IONOSPHERIC CORR
BDSB   1.4131E+05 -4.0960E+05  2.6870E+06 -2.2282E+06 K 07  IONOSPHERIC CORR
BDSB   1.4746E+05 -4.7514E+05  2.7525E+06 -2.1627E+06 S 08  IONOSPHERIC CORR
BDSB   1.4336E+05 -4.2598E+05  2.6870E+06 -2.2282E+06 W 09  IONOSPHERIC CORR
BDSB   1.4131E+05 -4.0960E+05  2.6870E+06 -2.2282E+06 L 10  IONOSPHERIC CORR
BDSB   1.4336E+05 -4.2598E+05  2.6870E+06 -2.2282E+06 W 11  IONOSPHERIC CORR
BDSB   1.4746E+05 -4.7514E+05  2.7525E+06 -2.1627E+06 S 12  IONOSPHERIC CORR
BDSB   1.4336E+05 -4.2598E+05  2.6870E+06 -2.2282E+06 W 13  IONOSPHERIC CORR
BDSB   1.4336E+05 -4.4237E+05  2.8180E+06 -2.2938E+06 M 14  IONOSPHERIC CORR
BDSB   1.2288E+05 -4.9152E+05  3.6045E+06 -2.8836E+06 U 16  IONOSPHERIC CORR
BDSB   1.4131E+05 -3.9322E+05  2.5559E+06 -2.0316E+06 U 19  IONOSPHERIC CORR
BDSB   1.4746E+05 -4.7514E+05  2.7525E+06 -2.1627E+06 S 20  IONOSPHERIC CORR
BDSB   1.4336E+05 -4.4237E+05  2.8180E+06 -2.2938E+06 M 21  IONOSPHERIC CORR
BDSB   1.4131E+05 -3.6045E+05  2.4904E+06 -2.0972E+06 I 22  IONOSPHERIC CORR
BDSB   1.4131E+05 -3.9322E+05  2.5559E+06 -2.0316E+06 U 23  IONOSPHERIC CORR
BDSB   1.4541E+05 -4.5875E+05  2.6214E+06 -2.0316E+06 Q 24  IONOSPHERIC CORR
BDSB   1.4746E+05 -4.7514E+05  2.7525E+06 -2.1627E+06 S 25  IONOSPHERIC CORR
BDSB   1.4541E+05 -4.9152E+05  2.8180E+06 -2.1627E+06 O 26  IONOSPHERIC CORR
BDSB   1.4336E+05 -4.2598E+05  2.6870E+06 -2.2282E+06 W 27  IONOSPHERIC CORR
BDSB   1.4336E+05 -4.2598E+05  2.6870E+06 -2.2282E+06 W 28  IONOSPHERIC CORR
BDSB   1.4336E+05 -4.2598E+05  2.6870E+06 -2.2282E+06 X 29  IONOSPHERIC CORR
BDSB   1.4336E+05 -4.2598E+05  2.6870E+06 -2.2282E+06 W 30  IONOSPHERIC CORR
BDSB   1.4541E+05 -4.5875E+05  2.6214E+06 -2.0316E+06 Q 31  IONOSPHERIC CORR
BDSB   1.4336E+05 -4.2598E+05  2.6870E+06 -2.2282E+06 X 32  IONOSPHERIC CORR
BDSB   1.4336E+05 -4.2598E+05  2.6870E+06 -2.2282E+06 W 33  IONOSPHERIC CORR
BDSB   1.4746E+05 -4.7514E+05  2.7525E+06 -2.1627E+06 S 34  IONOSPHERIC CORR
BDSB   1.4336E+05 -3.7683E+05  2.4248E+06 -2.0316E+06 G 35  IONOSPHERIC CORR
BDSB   1.4336E+05 -4.2598E+05  2.6870E+06 -2.2282E+06 W 36  IONOSPHERIC CORR
BDSB   1.4336E+05 -4.2598E+05  2.6870E+06 -2.2282E+06 W 37  IONOSPHERIC CORR
BDSB   1.4131E+05 -3.9322E+05  2.5559E+06 -2.0316E+06 U 38  IONOSPHERIC CORR
BDSB   1.4336E+05 -4.2598E+05  2.6870E+06 -2.2282E+06 X 39  IONOSPHERIC CORR
BDSB   1.2902E+05 -4.9152E+05  3.4079E+06 -2.6870E+06 E 40  IONOSPHERIC CORR
BDSB   1.4336E+05 -4.2598E+05  2.6870E+06 -2.2282E+06 W 41  IONOSPHERIC CORR
BDSB   1.4541E+05 -4.9152E+05  2.8180E+06 -2.1627E+06 O 42  IONOSPHERIC CORR
BDSB   1.3722E+05 -6.7174E+05  4.2598E+06 -3.2768E+06 I 43  IONOSPHERIC CORR
BDSB   1.3722E+05 -6.3898E+05  4.0632E+06 -3.0802E+06 E 44  IONOSPHERIC CORR
BDSB   1.4336E+05 -8.6835E+05  5.1118E+06 -3.8011E+06 U 45  IONOSPHERIC CORR
BDSB   1.4746E+05 -8.8474E+05  4.9807E+06 -3.6045E+06 Q 47  IONOSPHERIC CORR
BDSB   1.5155E+05 -7.5366E+05  4.5875E+06 -3.5389E+06 W 48  IONOSPHERIC CORR
BDSB   1.3722E+05 -7.3728E+05  4.5875E+06 -3.4734E+06 I 49  IONOSPHERIC CORR
BDSB   1.4746E+05 -9.0112E+05  5.1773E+06 -3.8011E+06 W 50  IONOSPHERIC CORR
GAGP -4.3655745685E-09-8.881784197E-16      0 2438          TIME SYSTEM CORR
GAL    1.2100E+02  6.2500E-02  6.1035E-05                   IONOSPHERIC CORR
GPSA   1.3039E-08  1.4901E-08 -5.9605E-08 -1.1921E-07       IONOSPHERIC CORR
GPSB   1.0240E+05  6.5536E+04 -1.9661E+05 -2.6214E+05       IONOSPHERIC CORR
QZSA   1.0245E-08 -1.4901E-08 -4.1723E-07  1.1921E-06       IONOSPHERIC CORR
QZSB   1.0240E+05  0.0000E+00 -8.5197E+05  8.3231E+06       IONOSPHERIC CORR
BDSA   2.7940E-08  1.0431E-07 -1.1325E-06  1.7881E-06 M 60  IONOSPHERIC CORR
BDSB   1.3312E+05 -5.8982E+05  3.8666E+06 -2.9491E+06 M 60  IONOSPHERIC CORR
GAUT  0.0000000000E+00 0.000000000E+00 518400 2437          TIME SYSTEM CORR
GPUT  4.6566128731E-09 3.552713679E-15 147456 2438          TIME SYSTEM CORR
GLUT -1.3969838619E-09 0.000000000E+00      0    0          TIME SYSTEM CORR
QZUT -1.8626451492E-09 0.000000000E+00 356352 2414          TIME SYSTEM CORR
BDUT  0.0000000000E+00 0.000000000E+00 604385 1081          TIME SYSTEM CORR
    18    18  1929     7                                    LEAP SECONDS
                                                            END OF HEADER
G01 2026 09 27 00 00 00 1.630480401220E-04-8.753886504560E-12 0.000000000000E+00
     1.470000000000E+02-1.135625000000E+02 4.484115352830E-09-7.645686735030E-01
    -5.928799510000E-06 1.993000973020E-03 9.568408131600E-06 5.153749078750E+03
     0.000000000000E+00 1.229345798490E-07-6.223027590760E-01-6.705522537230E-08
     9.564580931190E-01 1.961250000000E+02 1.626747524680E-01-8.137838973660E-09
    -6.182400378930E-10 1.000000000000E+00 2.438000000000E+03 0.000000000000E+00
     2.000000000000E+00 0.000000000000E+00-8.847564458850E-09 6.590000000000E+02
    -7.200000000000E+01 4.000000000000E+00
G02 2026 09 27 00 00 00 1.832959242165E-04 6.934897101019E-12 0.000000000000E+00
     8.400000000000E+01-1.139687500000E+02 4.686266630387E-09 5.229274566333E-01
    -6.360933184624E-06 1.708388177212E-02 7.318332791328E-06 5.153704008102E+03
     0.000000000000E+00 1.825392246246E-07-7.838987996401E-01-2.458691596985E-07
     9.610842248328E-01 2.416562500000E+02-7.051343261893E-01-8.520712064716E-09
    -6.668134897441E-10 1.000000000000E+00 2.438000000000E+03 0.000000000000E+00
     2.000000000000E+00 0.000000000000E+00-1.769512891769E-08 8.400000000000E+01
    -4.800000000000E+01 4.000000000000E+00
G03 2026 09 27 00 00 00 2.454253844917E-04-2.103206497850E-11 0.000000000000E+00
     2.600000000000E+01 3.715625000000E+01 3.370854695343E-09-2.990417097001E+00
     2.065673470497E-06 6.900682230480E-03 1.251138746738E-05 5.153732841492E+03
     0.000000000000E+00 7.078051567078E-08 3.717888621327E-01-2.048909664154E-08
     9.959200420559E-01 1.550000000000E+02 1.300673579784E+00-7.320662077817E-09
     4.475186409477E-10 1.000000000000E+00 2.438000000000E+03 0.000000000000E+00
     2.000000000000E+00 0.000000000000E+00 1.396983861923E-09 2.600000000000E+01
    -6.540000000000E+02 4.000000000000E+00
G04 2026 09 27 00 00 00 6.511434912682E-05 1.136868377216E-13 0.000000000000E+00
     1.640000000000E+02 2.118750000000E+01 4.724125350212E-09 7.815649493744E-02
     1.143664121628E-06 3.977592103183E-03 3.542751073837E-06 5.153649106979E+03
     0.000000000000E+00 4.284083843231E-08 1.438794390442E+00 4.284083843231E-08
     9.725419191889E-01 3.165000000000E+02-2.912588902824E+00-8.402850012431E-09
     2.353669468352E-10 1.000000000000E+00 2.438000000000E+03 0.000000000000E+00
     2.000000000000E+00 0.000000000000E+00-4.656612873077E-09 4.200000000000E+02
    -3.132000000000E+03 4.000000000000E+00
G05 2026 09 26 23 59 44-2.370444126427E-04-2.273736754432E-13 0.000000000000E+00
     9.000000000000E+00 3.659375000000E+01 3.764442518427E-09 5.925191923455E-01
     1.937150955200E-06 5.332858301699E-03 1.244805753231E-05 5.153571260452E+03
     6.047840000000E+05-8.009374141693E-08 4.297450828705E-01-1.210719347000E-07
     9.822646278130E-01 1.556562500000E+02 1.511575231976E+00-7.684605808963E-09
     3.000124967247E-10 1.000000000000E+00 2.437000000000E+03 0.000000000000E+00
     2.000000000000E+00 0.000000000000E+00-1.024454832077E-08 9.000000000000E+00
     5.976180000000E+05 4.000000000000E+00
G06 2026 09 27 00 00 00-5.102520808578E-04 1.227817847393E-11 0.000000000000E+00
     7.700000000000E+01-9.543750000000E+01 3.926592129752E-09-1.628195994979E+00
    -4.958361387253E-06 3.842687583528E-03 9.128823876381E-06 5.153764415741E+03
     0.000000000000E+00-6.705522537231E-08-6.659299429980E-01-1.490116119385E-08
     9.851130960860E-01 2.179687500000E+02-5.790619537632E-01-7.870327830745E-09
    -4.910918845196E-10 1.000000000000E+00 2.438000000000E+03 0.000000000000E+00
     2.000000000000E+00 0.000000000000E+00 3.725290298462E-09 7.700000000000E+01
    -1.974000000000E+03 4.000000000000E+00
G07 2026 09 26 23 59 44-2.279626205564E-04-3.183231456205E-12 0.000000000000E+00
     2.300000000000E+01-8.537500000000E+01 4.657694011651E-09-2.465733458416E+00
    -4.570931196213E-06 2.096643182449E-02 9.004026651382E-06 5.153765094757E+03
     6.047840000000E+05 2.682209014893E-07 2.566393005439E+00-4.842877388000E-08
     9.515075798014E-01 1.928125000000E+02-1.947942146238E+00-7.864970464732E-09
    -3.325138505366E-10 1.000000000000E+00 2.437000000000E+03 0.000000000000E+00
     2.000000000000E+00 0.000000000000E+00-1.071020960808E-08 2.300000000000E+01
     5.976180000000E+05 4.000000000000E+00
G08 2026 09 27 00 00 00 3.351918421686E-04-1.080024958355E-11 0.000000000000E+00
     2.400000000000E+01 4.709375000000E+01 5.639877780690E-09 2.656840238803E-01
     2.589076757431E-06 1.188722799998E-02 1.922249794006E-06 5.153774662018E+03
     0.000000000000E+00 5.587935447693E-09-1.794974574982E+00 1.247972249985E-07
     9.405309967769E-01 3.269375000000E+02 5.534706099296E-01-9.082164022872E-09
     7.643175511796E-11 1.000000000000E+00 2.438000000000E+03 0.000000000000E+00
     2.000000000000E+00 0.000000000000E+00 4.656612873077E-09 2.400000000000E+01
    -2.640000000000E+02 4.000000000000E+00
G09 2026 09 27 00 00 00 6.683743558824E-04-9.663381206337E-12 0.000000000000E+00
     2.600000000000E+01 3.146875000000E+01 4.805557313608E-09 8.964439182246E-01
     1.588836312294E-06 3.862961311825E-03 3.606081008911E-06 5.153653583527E+03
     0.000000000000E+00-7.450580596924E-09 1.373121971722E+00-6.146728992462E-08
     9.668998040350E-01 3.113437500000E+02 2.071608950302E+00-8.438565785851E-09
     3.021554431299E-10 1.000000000000E+00 2.438000000000E+03 0.000000000000E+00
     2.000000000000E+00 0.000000000000E+00 4.656612873077E-10 2.600000000000E+01
    -4.200000000000E+01 4.000000000000E+00
G10 2026 09 27 00 00 00-5.243923515080E-04 8.185452315960E-12 0.000000000000E+00
     5.800000000000E+01 4.359375000000E+01 3.397641525410E-09 2.411807256610E+00
     2.209097146990E-06 1.145247940440E-02 1.342967152600E-05 5.153654314040E+03
     0.000000000000E+00 1.303851604460E-08 3.692781436080E-01-1.769512891770E-07
     9.954128688390E-01 1.356875000000E+02-2.262244788100E+00-7.333876913980E-09
     5.185930300530E-10 1.000000000000E+00 2.438000000000E+03 0.000000000000E+00
     2.000000000000E+00 0.000000000000E+00 2.328306436540E-09 5.800000000000E+01
    -2.580000000000E+02 4.000000000000E+00
G11 2026 09 27 00 00 00-1.973668113351E-04 1.193711796077E-11 0.000000000000E+00
     2.240000000000E+02-9.431250000000E+01 4.451613999020E-09-4.441291107773E-01
    -4.988163709641E-06 2.727358834818E-03 8.758157491684E-06 5.153683168411E+03
     0.000000000000E+00-1.117587089539E-08-6.517413155961E-01 5.774199962616E-08
     9.620285808776E-01 2.127500000000E+02-2.297923670385E+00-8.161411384115E-09
    -5.439512291806E-10 1.000000000000E+00 2.438000000000E+03 0.000000000000E+00
     2.000000000000E+00 0.000000000000E+00-8.847564458847E-09 7.360000000000E+02
    -2.052000000000E+03 4.000000000000E+00
G12 2026 09 27 00 00 00-6.011477671564E-04 9.094947017729E-13 0.000000000000E+00
     4.200000000000E+01 9.315625000000E+01 4.478400829085E-09 3.071960700797E+00
     4.850327968597E-06 8.814078755677E-03 1.085735857487E-05 5.153678428650E+03
     0.000000000000E+00 1.583248376846E-07-2.718586170769E+00-5.587935447693E-09
     9.589089080736E-01 1.667187500000E+02 1.592315035433E+00-7.892828767999E-09
     3.660866775510E-10 1.000000000000E+00 2.438000000000E+03 0.000000000000E+00
     2.000000000000E+00 0.000000000000E+00-1.210719347000E-08 4.200000000000E+01
    -4.548000000000E+03 4.000000000000E+00
G13 2026 09 27 00 00 00 4.473761655390E-04 4.888534022029E-12 0.000000000000E+00
     2.030000000000E+02 7.837500000000E+01 4.442327897931E-09 2.989947930396E+00
     4.097819328308E-06 2.424458041787E-03 1.169368624687E-05 5.153801004410E+03
     0.000000000000E+00 4.656612873077E-08-2.826908836717E+00 1.303851604462E-08
     9.595420692587E-01 1.538125000000E+02 1.810614278141E+00-7.933187591963E-09
     2.950122884460E-10 1.000000000000E+00 2.438000000000E+03 0.000000000000E+00
     2.000000000000E+00 0.000000000000E+00-8.381903171539E-09 9.710000000000E+02
    -5.124000000000E+03 4.000000000000E+00
G14 2026 09 27 00 00 00 7.492690347140E-04-4.547473508860E-13 0.000000000000E+00
     1.360000000000E+02 7.787500000000E+01 4.753055126680E-09 2.972733136990E+00
     4.077330231670E-06 7.534401142040E-03 1.177750527860E-05 5.153664459230E+03
     0.000000000000E+00-7.078051567080E-08-2.776536095110E+00-1.098960638050E-07
     9.422709944660E-01 1.435625000000E+02-2.673573010940E+00-8.008190716140E-09
     3.285851154600E-10 1.000000000000E+00 2.438000000000E+03 0.000000000000E+00
     2.400000000000E+00 0.000000000000E+00-7.916241884230E-09 9.040000000000E+02
    -4.620000000000E+02 4.000000000000E+00
G15 2026 09 27 00 00 00 4.477850161493E-04 2.955857780762E-12 0.000000000000E+00
     1.860000000000E+02 4.556250000000E+01 5.364152009891E-09-7.760987369533E-01
     2.624467015266E-06 1.707477064338E-02 4.336237907410E-06 5.153561182022E+03
     0.000000000000E+00-1.750886440277E-07 1.224039439824E+00 1.471489667892E-07
     9.451278964620E-01 2.928437500000E+02 1.566115511203E+00-8.919657253813E-09
     4.860916762409E-10 1.000000000000E+00 2.438000000000E+03 0.000000000000E+00
     2.000000000000E+00 0.000000000000E+00-1.071020960808E-08 1.860000000000E+02
    -1.440000000000E+02 4.000000000000E+00
G16 2026 09 27 00 00 00 3.406438045200E-04 6.480149750130E-12 0.000000000000E+00
     1.050000000000E+02 8.659375000000E+01 4.576976363720E-09 1.353448049600E+00
     4.673376679420E-06 1.526310632470E-02 1.216493546960E-05 5.153755676270E+03
     0.000000000000E+00-2.831220626830E-07-2.701953636310E+00 1.210719347000E-07
     9.579308829690E-01 1.471875000000E+02 9.480624267430E-01-8.269273019840E-09
     3.364425856130E-10 1.000000000000E+00 2.438000000000E+03 0.000000000000E+00
     2.400000000000E+00 0.000000000000E+00-1.071020960810E-08 1.050000000000E+02
    -1.140000000000E+02 4.000000000000E+00
G17 2026 09 27 00 00 00-2.053095959127E-04-3.865352482535E-12 0.000000000000E+00
     1.800000000000E+01 2.084375000000E+01 5.234503752378E-09 2.954145744599E-01
     9.741634130478E-07 1.267128030304E-02 2.317130565643E-06 5.153708393097E+03
     0.000000000000E+00-6.519258022308E-08-1.687066644846E+00-1.098960638046E-07
     9.560414774564E-01 3.352812500000E+02-1.078590556517E+00-8.885727269064E-09
     2.464388365953E-11 1.000000000000E+00 2.438000000000E+03 0.000000000000E+00
     2.000000000000E+00 0.000000000000E+00-1.071020960808E-08 1.800000000000E+01
    -5.400000000000E+01 4.000000000000E+00
G18 2026 09 27 00 00 00-2.470691688359E-04 8.753886504564E-12 0.000000000000E+00
     1.980000000000E+02-1.067500000000E+02 4.178388332360E-09-1.661215397524E+00
    -5.632638931274E-06 6.564038922079E-03 9.417533874512E-06 5.153608287811E+03
     0.000000000000E+00 2.235174179077E-08-6.739178633841E-01-6.891787052155E-08
     9.700785611744E-01 2.021875000000E+02-2.815449468783E+00-7.936402011571E-09
    -5.093069289636E-10 1.000000000000E+00 2.438000000000E+03 0.000000000000E+00
     2.000000000000E+00 0.000000000000E+00-8.381903171539E-09 1.980000000000E+02
    -2.141000000000E+03 4.000000000000E+00 0.000000000000E+00 0.000000000000E+00
G19 2026 09 27 00 00 00 7.050158455968E-04 0.000000000000E+00 0.000000000000E+00
     9.100000000000E+01 1.725000000000E+01 5.219145969807E-09 1.924569600015E+00
     1.000240445137E-06 1.182888378389E-02 1.983717083931E-06 5.153587646484E+03
     0.000000000000E+00 7.078051567078E-08-1.643324352678E+00 2.756714820862E-07
     9.551527722783E-01 3.397187500000E+02 3.067456026393E+00-8.700719562751E-09
    -1.350056235261E-10 1.000000000000E+00 2.438000000000E+03 0.000000000000E+00
     2.000000000000E+00 0.000000000000E+00-1.536682248116E-08 9.100000000000E+01
    -1.080000000000E+02 4.000000000000E+00
G20 2026 09 27 00 00 00 2.941461279988E-04 7.844391802792E-12 0.000000000000E+00
     2.260000000000E+02 2.800000000000E+01 4.923419365893E-09 2.882941823425E+00
     1.400709152222E-06 1.853409106843E-03 3.250315785408E-06 5.153624994278E+03
     0.000000000000E+00 5.587935447693E-08 1.377674664948E+00-2.421438694000E-08
     9.622569350752E-01 3.175937500000E+02-1.683530267142E+00-8.433922735306E-09
     2.300095808223E-10 1.000000000000E+00 2.438000000000E+03 0.000000000000E+00
     2.000000000000E+00 0.000000000000E+00-6.519258022308E-09 9.940000000000E+02
    -1.200000000000E+01 4.000000000000E+00
G21 2026 09 27 00 00 00 3.532976843420E-04-9.208633855450E-12 0.000000000000E+00
     1.440000000000E+02 4.318750000000E+01 4.137672350660E-09 2.797437667360E+00
     2.233311533930E-06 8.551905630160E-04 1.175142824650E-05 5.153638154980E+03
     0.000000000000E+00 1.676380634310E-08 3.717939004230E-01-1.490116119380E-08
     9.653051574970E-01 1.564687500000E+02-2.020720228710E-01-7.853184259500E-09
     3.857303529320E-10 1.000000000000E+00 2.438000000000E+03 0.000000000000E+00
     2.000000000000E+00 0.000000000000E+00-9.778887033460E-09 4.000000000000E+02
    -1.482000000000E+03 4.000000000000E+00
G22 2026 09 27 00 00 00 9.059906005859E-05 8.753886504564E-12 0.000000000000E+00
     7.200000000000E+01 7.984375000000E+01 4.600548774180E-09 8.946709990268E-01
     4.107132554054E-06 1.158058247529E-02 1.056306064129E-05 5.153721416473E+03
     0.000000000000E+00 3.352761268616E-08-2.698559019758E+00-2.831220626831E-07
     9.574122799730E-01 1.755937500000E+02-9.653205181371E-01-8.167125907862E-09
     3.957307694893E-10 1.000000000000E+00 2.438000000000E+03 0.000000000000E+00
     2.000000000000E+00 0.000000000000E+00-1.117587089539E-08 7.200000000000E+01
    -3.840000000000E+02 4.000000000000E+00
G23 2026 09 27 00 00 00 6.927615031600E-04 3.524291969370E-12 0.000000000000E+00
     1.490000000000E+02 4.775000000000E+01 3.406213311028E-09-2.906559506442E+00
     2.436339855194E-06 6.744745885953E-03 1.336447894573E-05 5.153601966858E+03
     0.000000000000E+00-2.607703208923E-08 3.362039196713E-01-1.490116119385E-08
     9.903245003619E-01 1.368437500000E+02-2.716667546393E+00-7.404951303087E-09
     5.068068248242E-10 1.000000000000E+00 2.438000000000E+03 0.000000000000E+00
     2.000000000000E+00 0.000000000000E+00-8.381903171539E-09 4.050000000000E+02
    -1.100000000000E+01 4.000000000000E+00 0.000000000000E+00 0.000000000000E+00
G24 2026 09 27 00 00 00 2.252445556223E-04 1.659827830736E-11 0.000000000000E+00
     8.400000000000E+01-6.771875000000E+01 5.268433737126E-09-1.483621996663E+00
    -3.239139914513E-06 1.886892516632E-02 7.823109626770E-06 5.153721557617E+03
     0.000000000000E+00 3.539025783539E-07 2.333757655631E+00 3.054738044739E-07
     9.355855436932E-01 2.093750000000E+02 1.186250244084E+00-8.362848346201E-09
    -4.485901141503E-10 1.000000000000E+00 2.438000000000E+03 0.000000000000E+00
     2.000000000000E+00 0.000000000000E+00 2.328306436539E-09 8.400000000000E+01
    -1.782000000000E+03 4.000000000000E+00
G25 2026 09 27 00 00 00 3.849091008310E-04-3.524291969370E-12 0.000000000000E+00
     7.000000000000E+00 8.862500000000E+01 4.561975738890E-09-3.009424362970E+00
     4.382804036140E-06 1.180740143170E-02 1.232698559760E-05 5.153278522490E+03
     0.000000000000E+00 8.195638656620E-08-2.814743609350E+00-1.806765794750E-07
     9.473888787780E-01 1.313125000000E+02 9.875328342720E-01-7.903186342290E-09
     3.371569010810E-10 1.000000000000E+00 2.438000000000E+03 0.000000000000E+00
     2.000000000000E+00 0.000000000000E+00 5.587935447690E-09 7.000000000000E+00
    -1.602000000000E+03 4.000000000000E+00
G26 2026 09 27 00 00 00-3.937575966120E-04-7.958078640513E-13 0.000000000000E+00
     8.800000000000E+01 7.406250000000E+01 5.103069706194E-09 2.166589907235E+00
     3.796070814133E-06 1.149994181469E-02 1.363269984722E-05 5.153623662949E+03
     0.000000000000E+00-2.253800630569E-07-2.893139023676E+00-1.620501279831E-07
     9.282011838079E-01 9.887500000000E+01 7.374296223209E-01-8.200698734876E-09
     2.778687172046E-10 1.000000000000E+00 2.438000000000E+03 0.000000000000E+00
     2.000000000000E+00 0.000000000000E+00 6.519258022308E-09 8.800000000000E+01
    -2.940000000000E+02 4.000000000000E+00
G27 2026 09 26 23 59 44 3.781169652940E-07 0.000000000000E+00 0.000000000000E+00
     1.200000000000E+01 4.084375000000E+01 5.456655863050E-09 4.586916512630E-01
     2.317130565640E-06 1.446650782600E-02 2.237036824230E-06 5.153670616150E+03
     6.047840000000E+05-1.285225152970E-07-1.640727888140E+00 1.341104507450E-07
     9.496141117650E-01 3.283750000000E+02 9.049495141170E-01-9.053591404140E-09
     2.428672592530E-11 1.000000000000E+00 2.437000000000E+03 0.000000000000E+00
     2.000000000000E+00 0.000000000000E+00 2.328306436540E-09 1.200000000000E+01
     5.976180000000E+05 4.000000000000E+00
G28 2026 09 27 00 00 00-4.027932882309E-04 1.068656274583E-11 0.000000000000E+00
     9.000000000000E+00-7.234375000000E+01 4.580905098799E-09-1.990270781167E+00
    -3.924593329430E-06 4.926582332700E-04 9.756535291672E-06 5.153668601990E+03
     0.000000000000E+00 2.607703208923E-08 2.422566948860E+00-2.048909664154E-08
     9.623695812302E-01 1.942187500000E+02-6.290454114092E-02-8.102123200238E-09
    -5.435940714464E-10 1.000000000000E+00 2.438000000000E+03 0.000000000000E+00
     2.000000000000E+00 0.000000000000E+00-9.313225746155E-09 2.650000000000E+02
    -3.234000000000E+03 4.000000000000E+00
G29 2026 09 27 00 00 00-2.355990000070E-04 7.162270776460E-12 0.000000000000E+00
     9.200000000000E+01 1.340625000000E+01 5.124499170250E-09 1.264068467010E-01
     5.513429641720E-07 3.638919675720E-03 1.888722181320E-06 5.153650182720E+03
     0.000000000000E+00 1.490116119380E-08-1.669752633410E+00-5.960464477540E-08
     9.587436407550E-01 3.401875000000E+02 2.908751398060E+00-8.689647672990E-09
    -9.643258823290E-12 1.000000000000E+00 2.438000000000E+03 0.000000000000E+00
     2.400000000000E+00 0.000000000000E+00-9.778887033460E-09 9.200000000000E+01
    -1.380000000000E+02 4.000000000000E+00
G30 2026 09 27 00 00 00 3.760964609680E-04 1.182343112300E-11 0.000000000000E+00
     2.700000000000E+01-8.215625000000E+01 5.106284125800E-09-2.712157563060E+00
    -4.481524229050E-06 8.195197442550E-03 9.046867489810E-06 5.153647785190E+03
     0.000000000000E+00 6.519258022310E-08 2.433918752820E+00-1.136213541030E-07
     9.368218338180E-01 1.934375000000E+02-2.259366722070E+00-8.261415549690E-09
    -4.125171829960E-10 1.000000000000E+00 2.438000000000E+03 0.000000000000E+00
     2.000000000000E+00 0.000000000000E+00 3.725290298460E-09 2.700000000000E+01
    -1.080000000000E+02 4.000000000000E+00
G31 2026 09 26 23 59 44-1.173792406917E-04 2.955857780762E-12 0.000000000000E+00
     4.200000000000E+01-8.431250000000E+01 4.686266630387E-09 2.741074933071E+00
    -4.407018423080E-06 1.112335501239E-02 1.015141606331E-05 5.153665348053E+03
     6.047840000000E+05 6.146728992462E-08 2.591496746973E+00-1.583248376846E-07
     9.552145410683E-01 1.803125000000E+02 1.016986944537E+00-7.949974005471E-09
    -5.646663777640E-10 1.000000000000E+00 2.437000000000E+03 0.000000000000E+00
     2.000000000000E+00 0.000000000000E+00-1.350417733192E-08 4.200000000000E+01
     5.976180000000E+05 4.000000000000E+00
G32 2026 09 27 00 00 00 2.871002070610E-04 1.807620719770E-11 0.000000000000E+00
     1.520000000000E+02 2.512500000000E+01 4.846987610780E-09 1.011437394060E+00
     1.249834895130E-06 9.590072324500E-03 3.604218363760E-06 5.153593851090E+03
     0.000000000000E+00-1.564621925350E-07 1.390826472570E+00 1.862645149230E-09
     9.698220194710E-01 3.131875000000E+02-1.974281137760E+00-8.559642257740E-09
     1.910793877950E-10 1.000000000000E+00 2.438000000000E+03 0.000000000000E+00
     2.000000000000E+00 0.000000000000E+00 9.313225746150E-10 1.520000000000E+02
    -4.020000000000E+02 4.000000000000E+00
R01 2026 09 26 23 45 00 1.870179548860E-04 9.094947017729E-13 6.030000000000E+05
     2.195577148438E+03 9.931001663208E-01-0.000000000000E+00 0.000000000000E+00
    -1.667186376953E+04 2.434620857239E+00 1.862645149231E-09 1.000000000000E+00
    -1.918889550781E+04-2.001558303833E+00 1.862645149231E-09 0.000000000000E+00
E02 2026 09 26 23 40 00 7.179286330938E-05 2.685851541173E-12 0.000000000000E+00
     1.170000000000E+02 1.588437500000E+02 3.136916379444E-09 1.110408180638E+00
     7.508322596550E-06 3.561924677342E-04 1.156330108643E-05 5.440639158249E+03
     6.036000000000E+05 6.891787052155E-08-2.442506122904E+00 4.656612873077E-08
     9.614439300560E-01 9.028125000000E+01 2.167098890082E-01-5.708809223390E-09
     6.010964666520E-10 2.580000000000E+02 2.437000000000E+03 0.000000000000E+00
     3.120000000000E+00 0.000000000000E+00-2.793967723846E-09 0.000000000000E+00
     6.043000000000E+05
C01 2026 09 27 00 00 00-7.613562047480E-07 4.352074256530E-14 0.000000000000E+00
     1.000000000000E+00 4.031250000000E+01 1.635425264880E-09-1.093768248200E+00
     1.234933733940E-06 5.813350435350E-04 2.919510006900E-05 6.493348325730E+03
     0.000000000000E+00-3.771856427190E-08-3.133708492130E+00 1.280568540100E-07
     8.004495101640E-02-8.854375000000E+02 3.876051336520E-01-7.218157808100E-10
    -1.532206679700E-10 0.000000000000E+00 1.082000000000E+03 0.000000000000E+00
     2.000000000000E+00 0.000000000000E+00 4.499999928240E-09 4.500000000000E-09
     0.000000000000E+00 1.000000000000E+00
J02 2026 09 27 01 00 00-2.591405063870E-06-3.410605131650E-13 0.000000000000E+00
     1.000000000000E+00 4.740937500000E+02 3.010839699270E-09 1.625892829420E-01
     1.696683466430E-05 7.495772012040E-02-4.358589649200E-07 6.493738124850E+03
     3.600000000000E+03-3.706663846970E-07-2.166329971560E+00 7.078051567080E-08
     6.854841106500E-01 1.475000000000E+02-1.557916573660E+00-3.696582548930E-09
     5.085926134950E-10 0.000000000000E+00 2.438000000000E+03 1.000000000000E+00
     2.800000000000E+00 1.000000000000E+00 1.396983861920E-09 7.690000000000E+02
     6.000000000000E+00 1.000000000000E+00
I02 2026 09 26 23 50 24 5.956487730145E-04 3.444711182965E-11 0.000000000000E+00
     1.600000000000E+02 9.459375000000E+02 3.845874481823E-09-1.580879600838E-01
     3.087520599365E-05 1.986047136597E-03-9.857118129730E-06 6.493398590088E+03
     6.042240000000E+05 1.229345798492E-07-2.098684971659E+00-2.160668373108E-07
     5.018918211003E-01 3.946875000000E+02-2.986298374034E+00-3.854446267444E-09
     5.260933424708E-10 0.000000000000E+00 2.437000000000E+03
     2.000000000000E+00 0.000000000000E+00-1.862645149231E-09
     6.044160000000E+05
S21 2026 09 27 00 01 04 0.000000000000E+00 0.000000000000E+00 6.700000000000E+01
     4.200468400000E+04 0.000000000000E+00 0.000000000000E+00 6.300000000000E+01
    -3.674932960000E+03 0.000000000000E+00 0.000000000000E+00 3.276700000000E+04
     0.000000000000E+00 0.000000000000E+00 0.000000000000E+00 1.140000000000E+02
